{
    "links": {
        "self": "http://www.neowsapp.com/rest/v1/neo/3838253?api_key=iIulBulltgU6a56xZRHN4H3l9WmuAYTsLGpBGhQ2"
    },
    "id": "3838253",
    "neo_reference_id": "3838253",
    "name": "(2019 CQ4)",
    "designation": "2019 CQ4",
    "nasa_jpl_url": "http://ssd.jpl.nasa.gov/sbdb.cgi?sstr=3838253",
    "absolute_magnitude_h": 23.1,
    "estimated_diameter": {
        "kilometers": {
            "estimated_diameter_min": 0.063760979,
            "estimated_diameter_max": 0.1425738833
        },
        "meters": {
            "estimated_diameter_min": 63.7609789875,
            "estimated_diameter_max": 142.5738833281
        },
        "miles": {
            "estimated_diameter_min": 0.0396192233,
            "estimated_diameter_max": 0.0885912765
        },
        "feet": {
            "estimated_diameter_min": 209.1895703015,
            "estimated_diameter_max": 467.7620993781
        }
    },
    "is_potentially_hazardous_asteroid": false,
    "close_approach_data": [
        {
            "close_approach_date": "2019-01-25",
            "close_approach_date_full": "2019-Jan-25 14:30",
            "epoch_date_close_approach": 1548426600000,
            "relative_velocity": {
                "kilometers_per_second": "17.9267012591",
                "kilometers_per_hour": "64536.1245326614",
                "miles_per_hour": "40100.2380464195"
            },
            "miss_distance": {
                "astronomical": "0.058804431",
                "lunar": "22.874923659",
                "kilometers": "8797017.62416197",
                "miles": "5466213.279976386"
            },
            "orbiting_body": "Earth"
        }
    ],
    "orbital_data": {
        "orbit_id": "2",
        "orbit_determination_date": "2019-02-26 07:26:20",
        "first_observation_date": "2019-02-04",
        "last_observation_date": "2019-02-25",
        "data_arc_in_days": 21,
        "observations_used": 21,
        "orbit_uncertainty": "9",
        "minimum_orbit_intersection": ".0209221",
        "jupiter_tisserand_invariant": "3.438",
        "epoch_osculation": "2458521.5",
        "eccentricity": ".6765548171659179",
        "semi_major_axis": "2.060910909059452",
        "inclination": "9.783204649846626",
        "ascending_node_longitude": "139.9869102234337",
        "orbital_period": "1080.655464864785",
        "perihelion_distance": ".6665917057854888",
        "perihelion_argument": "268.4913308762282",
        "aphelion_distance": "3.455230112333415",
        "perihelion_time": "2458464.029978890148",
        "mean_anomaly": "19.14505434175121",
        "mean_motion": ".3331311520689385",
        "equinox": "J2000",
        "orbit_class": {
            "orbit_class_type": "APO",
            "orbit_class_description": "Near-Earth asteroid orbits which cross the Earth’s orbit similar to that of 1862 Apollo",
            "orbit_class_range": "a (semi-major axis) > 1.0 AU; q (perihelion) < 1.017 AU"
        }
    },
    "is_sentry_object": false
}